OTP-2                   
1 63235U 25052AB  26068.64080644  .00011014  00000+0  47808-3 0  9993
2 63235  97.3983 322.5927 0007494 139.5012 220.6784 15.22471318 54715
ZHANGHENG 1-02 (CSES-2) 
1 64393U 25128A   26066.73730833 -.00000031  00000+0  16470-5 0  9994
2 64393  97.3434 195.9568 0014227 108.2865 251.9920 15.21023059 40501
